{
  "58273": {
    "name": "PlanetScope-58273",
    "line1": "1 58273U 23174T   26068.95713266  .00028516  00000-0  60116-3 0  9992",
    "line2": "2 58273  97.3894 155.5718 0007781 154.8881 205.2748 15.45173932130245",
    "meta": {
      "display_name": "PlanetScope-58273",
      "type": "optical",
      "swath_km": 8.0,
      "resolution_m": 4.0,
      "off_nadir_deg": 0,
      "altitude_km": 525.0,
      "priority": 10
    }
  },
  "58327": {
    "name": "PlanetScope-58327",
    "line1": "1 58327U 23174BZ  26068.95605259  .00026281  00000-0  57135-3 0  9998",
    "line2": "2 58327  97.3850 154.7858 0007719 155.8923 204.2688 15.44282003130221",
    "meta": {
      "display_name": "PlanetScope-58327",
      "type": "optical",
      "swath_km": 8.0,
      "resolution_m": 4.0,
      "off_nadir_deg": 0,
      "altitude_km": 525.0,
      "priority": 10
    }
  }
}